ORBCOMM FM24 [-]        
1 25478U 98053D   24108.86614892  .00002806  00000+0  10148-2 0  9991
2 25478  45.0074 121.7312 0003285 275.3017  84.7455 14.35508393336273
ORBCOMM FM25 [-]        
1 25479U 98053E   24108.41453244  .00003670  00000+0  13124-2 0  9992
2 25479  45.0059 122.1058 0005890 277.5878  82.4300 14.35489731336506
ORBCOMM FM26 [-]        
1 25480U 98053F   24108.06413548  .00002340  00000+0  86369-3 0  9993
2 25480  45.0061 117.7807 0007860 291.6211  68.3799 14.34950723336395
ORBCOMM FM27 [+]        
1 25481U 98053G   24108.95917999  .00003401  00000+0  12205-2 0  9997
2 25481  45.0043 119.7989 0001983 290.6124  69.4510 14.35473090336550
ORBCOMM FM28 [-]        
1 25482U 98053H   24108.95263664  .00003997  00000+0  14129-2 0  9998
2 25482  45.0062  58.3714 0005490 325.1750  34.8738 14.35920386337354
ORBCOMM FM30 [-]        
1 25980U 99065A   24107.95873936  .00002516  00000+0  92256-3 0  9997
2 25980  45.0319 303.7853 0005856  37.7812 322.3446 14.35097594273170
ORBCOMM FM31 [-]        
1 25981U 99065B   24107.64585581  .00002387  00000+0  87783-3 0  9995
2 25981  45.0232 298.9696 0003182  65.8175 294.3005 14.35099508272680
ORBCOMM FM32 [+]        
1 25982U 99065C   24108.51589591  .00002385  00000+0  89516-3 0  9992
2 25982  45.0164 308.5051 0005727  67.2347 292.9104 14.34073190273449
