<?xml version="1.0" encoding="UTF-8"?>
<ndm xmlns:xsi="http://www.w3.org/2001/XMLSchema-instance" xsi:noNamespaceSchemaLocation="https://sanaregistry.org/r/ndmxml_unqualified/ndmxml-2.0.0-master-2.0.xsd">
<omm id="CCSDS_OMM_VERS" version="2.0">
<header><CREATION_DATE/><ORIGINATOR/></header><body><segment><metadata><OBJECT_NAME>ORBCOMM FM24 [-]</OBJECT_NAME><OBJECT_ID>1998-053D</OBJECT_ID><CENTER_NAME>EARTH</CENTER_NAME><REF_FRAME>TEME</REF_FRAME><TIME_SYSTEM>UTC</TIME_SYSTEM><MEAN_ELEMENT_THEORY>SGP4</MEAN_ELEMENT_THEORY></metadata><data><meanElements><EPOCH>2024-04-17T20:47:15.266688</EPOCH><MEAN_MOTION>14.35508393</MEAN_MOTION><ECCENTRICITY>.0003285</ECCENTRICITY><INCLINATION>45.0074</INCLINATION><RA_OF_ASC_NODE>121.7312</RA_OF_ASC_NODE><ARG_OF_PERICENTER>275.3017</ARG_OF_PERICENTER><MEAN_ANOMALY>84.7455</MEAN_ANOMALY></meanElements><tleParameters><EPHEMERIS_TYPE>0</EPHEMERIS_TYPE><CLASSIFICATION_TYPE>U</CLASSIFICATION_TYPE><NORAD_CAT_ID>25478</NORAD_CAT_ID><ELEMENT_SET_NO>999</ELEMENT_SET_NO><REV_AT_EPOCH>33627</REV_AT_EPOCH><BSTAR>.10148E-2</BSTAR><MEAN_MOTION_DOT>.2806E-4</MEAN_MOTION_DOT><MEAN_MOTION_DDOT>0</MEAN_MOTION_DDOT></tleParameters></data></segment></body></omm>
<omm id="CCSDS_OMM_VERS" version="2.0">
<header><CREATION_DATE/><ORIGINATOR/></header><body><segment><metadata><OBJECT_NAME>ORBCOMM FM25 [-]</OBJECT_NAME><OBJECT_ID>1998-053E</OBJECT_ID><CENTER_NAME>EARTH</CENTER_NAME><REF_FRAME>TEME</REF_FRAME><TIME_SYSTEM>UTC</TIME_SYSTEM><MEAN_ELEMENT_THEORY>SGP4</MEAN_ELEMENT_THEORY></metadata><data><meanElements><EPOCH>2024-04-17T09:56:55.602816</EPOCH><MEAN_MOTION>14.35489731</MEAN_MOTION><ECCENTRICITY>.000589</ECCENTRICITY><INCLINATION>45.0059</INCLINATION><RA_OF_ASC_NODE>122.1058</RA_OF_ASC_NODE><ARG_OF_PERICENTER>277.5878</ARG_OF_PERICENTER><MEAN_ANOMALY>82.4300</MEAN_ANOMALY></meanElements><tleParameters><EPHEMERIS_TYPE>0</EPHEMERIS_TYPE><CLASSIFICATION_TYPE>U</CLASSIFICATION_TYPE><NORAD_CAT_ID>25479</NORAD_CAT_ID><ELEMENT_SET_NO>999</ELEMENT_SET_NO><REV_AT_EPOCH>33650</REV_AT_EPOCH><BSTAR>.13124E-2</BSTAR><MEAN_MOTION_DOT>.367E-4</MEAN_MOTION_DOT><MEAN_MOTION_DDOT>0</MEAN_MOTION_DDOT></tleParameters></data></segment></body></omm>
<omm id="CCSDS_OMM_VERS" version="2.0">
<header><CREATION_DATE/><ORIGINATOR/></header><body><segment><metadata><OBJECT_NAME>ORBCOMM FM26 [-]</OBJECT_NAME><OBJECT_ID>1998-053F</OBJECT_ID><CENTER_NAME>EARTH</CENTER_NAME><REF_FRAME>TEME</REF_FRAME><TIME_SYSTEM>UTC</TIME_SYSTEM><MEAN_ELEMENT_THEORY>SGP4</MEAN_ELEMENT_THEORY></metadata><data><meanElements><EPOCH>2024-04-17T01:32:21.305472</EPOCH><MEAN_MOTION>14.34950723</MEAN_MOTION><ECCENTRICITY>.000786</ECCENTRICITY><INCLINATION>45.0061</INCLINATION><RA_OF_ASC_NODE>117.7807</RA_OF_ASC_NODE><ARG_OF_PERICENTER>291.6211</ARG_OF_PERICENTER><MEAN_ANOMALY>68.3799</MEAN_ANOMALY></meanElements><tleParameters><EPHEMERIS_TYPE>0</EPHEMERIS_TYPE><CLASSIFICATION_TYPE>U</CLASSIFICATION_TYPE><NORAD_CAT_ID>25480</NORAD_CAT_ID><ELEMENT_SET_NO>999</ELEMENT_SET_NO><REV_AT_EPOCH>33639</REV_AT_EPOCH><BSTAR>.86369E-3</BSTAR><MEAN_MOTION_DOT>.234E-4</MEAN_MOTION_DOT><MEAN_MOTION_DDOT>0</MEAN_MOTION_DDOT></tleParameters></data></segment></body></omm>
<omm id="CCSDS_OMM_VERS" version="2.0">
<header><CREATION_DATE/><ORIGINATOR/></header><body><segment><metadata><OBJECT_NAME>ORBCOMM FM27 [+]</OBJECT_NAME><OBJECT_ID>1998-053G</OBJECT_ID><CENTER_NAME>EARTH</CENTER_NAME><REF_FRAME>TEME</REF_FRAME><TIME_SYSTEM>UTC</TIME_SYSTEM><MEAN_ELEMENT_THEORY>SGP4</MEAN_ELEMENT_THEORY></metadata><data><meanElements><EPOCH>2024-04-17T23:01:13.151136</EPOCH><MEAN_MOTION>14.35473090</MEAN_MOTION><ECCENTRICITY>.0001983</ECCENTRICITY><INCLINATION>45.0043</INCLINATION><RA_OF_ASC_NODE>119.7989</RA_OF_ASC_NODE><ARG_OF_PERICENTER>290.6124</ARG_OF_PERICENTER><MEAN_ANOMALY>69.4510</MEAN_ANOMALY></meanElements><tleParameters><EPHEMERIS_TYPE>0</EPHEMERIS_TYPE><CLASSIFICATION_TYPE>U</CLASSIFICATION_TYPE><NORAD_CAT_ID>25481</NORAD_CAT_ID><ELEMENT_SET_NO>999</ELEMENT_SET_NO><REV_AT_EPOCH>33655</REV_AT_EPOCH><BSTAR>.12205E-2</BSTAR><MEAN_MOTION_DOT>.3401E-4</MEAN_MOTION_DOT><MEAN_MOTION_DDOT>0</MEAN_MOTION_DDOT></tleParameters></data></segment></body></omm>
<omm id="CCSDS_OMM_VERS" version="2.0">
<header><CREATION_DATE/><ORIGINATOR/></header><body><segment><metadata><OBJECT_NAME>ORBCOMM FM28 [-]</OBJECT_NAME><OBJECT_ID>1998-053H</OBJECT_ID><CENTER_NAME>EARTH</CENTER_NAME><REF_FRAME>TEME</REF_FRAME><TIME_SYSTEM>UTC</TIME_SYSTEM><MEAN_ELEMENT_THEORY>SGP4</MEAN_ELEMENT_THEORY></metadata><data><meanElements><EPOCH>2024-04-17T22:51:47.805696</EPOCH><MEAN_MOTION>14.35920386</MEAN_MOTION><ECCENTRICITY>.000549</ECCENTRICITY><INCLINATION>45.0062</INCLINATION><RA_OF_ASC_NODE>58.3714</RA_OF_ASC_NODE><ARG_OF_PERICENTER>325.1750</ARG_OF_PERICENTER><MEAN_ANOMALY>34.8738</MEAN_ANOMALY></meanElements><tleParameters><EPHEMERIS_TYPE>0</EPHEMERIS_TYPE><CLASSIFICATION_TYPE>U</CLASSIFICATION_TYPE><NORAD_CAT_ID>25482</NORAD_CAT_ID><ELEMENT_SET_NO>999</ELEMENT_SET_NO><REV_AT_EPOCH>33735</REV_AT_EPOCH><BSTAR>.14129E-2</BSTAR><MEAN_MOTION_DOT>.3997E-4</MEAN_MOTION_DOT><MEAN_MOTION_DDOT>0</MEAN_MOTION_DDOT></tleParameters></data></segment></body></omm>
<omm id="CCSDS_OMM_VERS" version="2.0">
<header><CREATION_DATE/><ORIGINATOR/></header><body><segment><metadata><OBJECT_NAME>ORBCOMM FM30 [-]</OBJECT_NAME><OBJECT_ID>1999-065A</OBJECT_ID><CENTER_NAME>EARTH</CENTER_NAME><REF_FRAME>TEME</REF_FRAME><TIME_SYSTEM>UTC</TIME_SYSTEM><MEAN_ELEMENT_THEORY>SGP4</MEAN_ELEMENT_THEORY></metadata><data><meanElements><EPOCH>2024-04-16T23:00:35.080704</EPOCH><MEAN_MOTION>14.35097594</MEAN_MOTION><ECCENTRICITY>.0005856</ECCENTRICITY><INCLINATION>45.0319</INCLINATION><RA_OF_ASC_NODE>303.7853</RA_OF_ASC_NODE><ARG_OF_PERICENTER>37.7812</ARG_OF_PERICENTER><MEAN_ANOMALY>322.3446</MEAN_ANOMALY></meanElements><tleParameters><EPHEMERIS_TYPE>0</EPHEMERIS_TYPE><CLASSIFICATION_TYPE>U</CLASSIFICATION_TYPE><NORAD_CAT_ID>25980</NORAD_CAT_ID><ELEMENT_SET_NO>999</ELEMENT_SET_NO><REV_AT_EPOCH>27317</REV_AT_EPOCH><BSTAR>.92256E-3</BSTAR><MEAN_MOTION_DOT>.2516E-4</MEAN_MOTION_DOT><MEAN_MOTION_DDOT>0</MEAN_MOTION_DDOT></tleParameters></data></segment></body></omm>
<omm id="CCSDS_OMM_VERS" version="2.0">
<header><CREATION_DATE/><ORIGINATOR/></header><body><segment><metadata><OBJECT_NAME>ORBCOMM FM31 [-]</OBJECT_NAME><OBJECT_ID>1999-065B</OBJECT_ID><CENTER_NAME>EARTH</CENTER_NAME><REF_FRAME>TEME</REF_FRAME><TIME_SYSTEM>UTC</TIME_SYSTEM><MEAN_ELEMENT_THEORY>SGP4</MEAN_ELEMENT_THEORY></metadata><data><meanElements><EPOCH>2024-04-16T15:30:01.941984</EPOCH><MEAN_MOTION>14.35099508</MEAN_MOTION><ECCENTRICITY>.0003182</ECCENTRICITY><INCLINATION>45.0232</INCLINATION><RA_OF_ASC_NODE>298.9696</RA_OF_ASC_NODE><ARG_OF_PERICENTER>65.8175</ARG_OF_PERICENTER><MEAN_ANOMALY>294.3005</MEAN_ANOMALY></meanElements><tleParameters><EPHEMERIS_TYPE>0</EPHEMERIS_TYPE><CLASSIFICATION_TYPE>U</CLASSIFICATION_TYPE><NORAD_CAT_ID>25981</NORAD_CAT_ID><ELEMENT_SET_NO>999</ELEMENT_SET_NO><REV_AT_EPOCH>27268</REV_AT_EPOCH><BSTAR>.87783E-3</BSTAR><MEAN_MOTION_DOT>.2387E-4</MEAN_MOTION_DOT><MEAN_MOTION_DDOT>0</MEAN_MOTION_DDOT></tleParameters></data></segment></body></omm>
<omm id="CCSDS_OMM_VERS" version="2.0">
<header><CREATION_DATE/><ORIGINATOR/></header><body><segment><metadata><OBJECT_NAME>ORBCOMM FM32 [+]</OBJECT_NAME><OBJECT_ID>1999-065C</OBJECT_ID><CENTER_NAME>EARTH</CENTER_NAME><REF_FRAME>TEME</REF_FRAME><TIME_SYSTEM>UTC</TIME_SYSTEM><MEAN_ELEMENT_THEORY>SGP4</MEAN_ELEMENT_THEORY></metadata><data><meanElements><EPOCH>2024-04-17T12:22:53.406624</EPOCH><MEAN_MOTION>14.34073190</MEAN_MOTION><ECCENTRICITY>.0005727</ECCENTRICITY><INCLINATION>45.0164</INCLINATION><RA_OF_ASC_NODE>308.5051</RA_OF_ASC_NODE><ARG_OF_PERICENTER>67.2347</ARG_OF_PERICENTER><MEAN_ANOMALY>292.9104</MEAN_ANOMALY></meanElements><tleParameters><EPHEMERIS_TYPE>0</EPHEMERIS_TYPE><CLASSIFICATION_TYPE>U</CLASSIFICATION_TYPE><NORAD_CAT_ID>25982</NORAD_CAT_ID><ELEMENT_SET_NO>999</ELEMENT_SET_NO><REV_AT_EPOCH>27344</REV_AT_EPOCH><BSTAR>.89516E-3</BSTAR><MEAN_MOTION_DOT>.2385E-4</MEAN_MOTION_DOT><MEAN_MOTION_DDOT>0</MEAN_MOTION_DDOT></tleParameters></data></segment></body></omm>

</ndm>
